NORAD_CAT_ID,OBJECT_NAME,OBJECT_TYPE,EPOCH,MEAN_MOTION,ECCENTRICITY,INCLINATION,RA_OF_ASC_NODE,ARG_OF_PERICENTER,MEAN_ANOMALY,BSTAR,MEAN_MOTION_DOT,MEAN_MOTION_DDOT,TLE_LINE0,TLE_LINE1,TLE_LINE2,SEMIMAJOR_AXIS,PERIOD,APOGEE,PERIGEE,DECAYED
52458.0,STARLINK-3898,PAYLOAD,2022-07-11 06:00:00,15.08824558,0.0001587,53.2176,313.1029,47.8311,20.253,0.0033096,0.00052756,0.0,0 STARLINK-3898,1 52458U 22049H   22192.25001157  .00052756  00000-0  33096-2 0  9996,2 52458  53.2176 313.1029 0001587  47.8311  20.2530 15.08824558 10362,6917.928000000001,95.439,540.89,538.695,0.0
52458.0,STARLINK-3898,PAYLOAD,2022-07-11 14:00:01,15.08871894,0.0001789,53.2176,311.6083,45.3278,34.3498,-0.0034313,-0.00054532,0.0,0 STARLINK-3898,1 52458U 22049H   22192.58334491 -.00054532  00000-0 -34313-2 0  9991,2 52458  53.2176 311.6083 0001789  45.3278  34.3498 15.08871894  1302,6917.783,95.436,540.885,538.41,0.0
52458.0,STARLINK-3898,PAYLOAD,2022-07-11 22:00:00,15.08847384,0.0001837,53.2172,310.1116,44.7679,46.5199,-0.001207,-0.0001945,0.0,0 STARLINK-3898,1 52458U 22049H   22192.91667824 -.00019450  00000-0 -12070-2 0  9993,2 52458  53.2172 310.1116 0001837  44.7679  46.5199 15.08847384  1301,6917.858,95.437,540.994,538.452,0.0
52458.0,STARLINK-3898,PAYLOAD,2022-07-12 14:00:01,15.08867702,0.0001716,53.2173,307.1195,42.2821,72.1822,-0.0027989,-0.00044591,0.0,0 STARLINK-3898,1 52458U 22049H   22193.58334491 -.00044591  00000-0 -27989-2 0  9997,2 52458  53.2173 307.1195 0001716  42.2821  72.1822 15.08867702 10565,6917.795999999999,95.436,540.8480000000002,538.474,0.0
52458.0,STARLINK-3898,PAYLOAD,2022-07-12 22:00:00,15.08852059,0.0001761,53.2169,305.6227,41.7014,84.3789,-0.00055979,-9.189e-05,0.0,0 STARLINK-3898,1 52458U 22049H   22193.91667824 -.00009189  00000-0 -55979-3 0  9998,2 52458  53.2169 305.6227 0001761  41.7014  84.3789 15.08852059  1305,6917.844,95.437,540.927,538.49,0.0
52458.0,STARLINK-3898,PAYLOAD,2022-07-13 06:00:00,15.08850537,0.0001671,53.2171,304.1251,49.4961,88.191,-0.0001428,-2.561e-05,0.0,0 STARLINK-3898,1 52458U 22049H   22194.25001157 -.00002561  00000-0 -14280-3 0  9994,2 52458  53.2171 304.1251 0001671  49.4961  88.1910 15.08850537 10661,6917.848000000001,95.437,540.869,538.557,0.0
52458.0,STARLINK-3898,PAYLOAD,2022-07-13 14:00:01,15.0883929,0.0001862,53.217,302.6306,45.9319,103.3532,-0.0010568,-0.00017068,0.0,0 STARLINK-3898,1 52458U 22049H   22194.58334491 -.00017068  00000-0 -10568-2 0  9992,2 52458  53.2170 302.6306 0001862  45.9319 103.3532 15.08839290  1308,6917.8830000000025,95.438,541.036,538.4590000000002,0.0
52458.0,STARLINK-3898,PAYLOAD,2022-07-13 22:00:00,15.08850861,0.0001761999999999,53.2168,301.1338,41.7707,119.0987,-0.0046731,-0.00073921,0.0,0 STARLINK-3898,1 52458U 22049H   22194.91667824 -.00073921  00000-0 -46731-2 0  9999,2 52458  53.2168 301.1338 0001762  41.7707 119.0987 15.08850861 10774,6917.847,95.437,540.931,538.493,0.0
52458.0,STARLINK-3898,PAYLOAD,2022-07-14 14:00:01,15.08800151,0.0001784,53.2169,298.142,40.1697,143.8239,0.00029,4.325e-05,0.0,0 STARLINK-3898,1 52458U 22049H   22195.58334491  .00004325  00000-0  29000-3 0  9995,2 52458  53.2169 298.1420 0001784  40.1697 143.8239 15.08800151 10870,6918.002,95.44,541.101,538.633,0.0
52458.0,STARLINK-3898,PAYLOAD,2022-07-14 22:00:00,15.08827251,0.0001751,53.2168,296.6451,38.8921,156.6463,-0.0013787,-0.00022156,0.0,0 STARLINK-3898,1 52458U 22049H   22195.91667824 -.00022156  00000-0 -13787-2 0  9999,2 52458  53.2168 296.6451 0001751  38.8921 156.6463 15.08827251  1303,6917.919,95.438,540.996,538.573,0.0
52458.0,STARLINK-3898,PAYLOAD,2022-07-15 14:00:01,15.08826416,0.0001885,53.2169,293.6532,39.6516,179.0366,0.00070516,0.00010948,0.0,0 STARLINK-3898,1 52458U 22049H   22196.58334491  .00010948  00000-0  70516-3 0  9992,2 52458  53.2169 293.6532 0001885  39.6516 179.0366 15.08826416 11021,6917.922,95.438,541.091,538.4830000000002,0.0
52458.0,STARLINK-3898,PAYLOAD,2022-07-15 22:00:00,15.08861081,0.0001821,53.2168,292.1561,38.7392,191.5342,-0.001475,-0.000237,0.0,0 STARLINK-3898,1 52458U 22049H   22196.91667824 -.00023700  00000-0 -14750-2 0  9997,2 52458  53.2168 292.1561 0001821  38.7392 191.5342 15.08861081  1308,6917.816,95.436,540.941,538.4209999999998,0.0
52458.0,STARLINK-3898,PAYLOAD,2022-07-16 14:00:01,15.08854364,0.0001898,53.2169,289.1642,37.4453,216.0658,-0.00086089,-0.00013969,0.0,0 STARLINK-3898,1 52458U 22049H   22197.58334491 -.00013969  00000-0 -86089-3 0  9993,2 52458  53.2169 289.1642 0001898  37.4453 216.0658 15.08854364  1302,6917.8359999999975,95.437,541.014,538.388,0.0
52458.0,STARLINK-3898,PAYLOAD,2022-07-16 22:00:00,15.08884236,0.0001802,53.2168,287.6669,36.9517,228.1686,-0.0032264,-0.00051333,0.0,0 STARLINK-3898,1 52458U 22049H   22197.91667824 -.00051333  00000-0 -32264-2 0  9991,2 52458  53.2168 287.6669 0001802  36.9517 228.1686 15.08884236  1309,6917.745,95.435,540.857,538.364,0.0
52458.0,STARLINK-3898,PAYLOAD,2022-07-17 14:00:01,15.08854674,0.0001947,53.2168,284.675,38.2152,250.1318,-0.001822,-0.0002918,0.0,0 STARLINK-3898,1 52458U 22049H   22198.58334491 -.00029180  00000-0 -18220-2 0  9997,2 52458  53.2168 284.6750 0001947  38.2152 250.1318 15.08854674 11320,6917.8359999999975,95.437,541.047,538.354,0.0
52458.0,STARLINK-3898,PAYLOAD,2022-07-17 22:00:00,15.08854312,0.0001866,53.2169,283.1809,37.1793,262.7643,-0.0053159,-0.0008394,0.0,0 STARLINK-3898,1 52458U 22049H   22198.91667824 -.00083940  00000-0 -53159-2 0  9997,2 52458  53.2169 283.1809 0001866  37.1793 262.7643 15.08854312  1305,6917.837,95.437,540.993,538.411,0.0
52458.0,STARLINK-3898,PAYLOAD,2022-07-18 14:00:01,15.08805134,0.0001963,53.2165,280.1859,39.989,283.0804,0.0015355,0.00024211,0.0,0 STARLINK-3898,1 52458U 22049H   22199.58334491  .00024211  00000-0  15355-2 0  9992,2 52458  53.2165 280.1859 0001963  39.9890 283.0804 15.08805134  1302,6917.986999999999,95.44,541.21,538.494,0.0
52458.0,STARLINK-3898,PAYLOAD,2022-07-18 16:00:00,15.08796023,0.0001951,53.2163,279.8119,38.5965,17.3667,0.0032085,0.00051084,0.0,0 STARLINK-3898,1 52458U 22049H   22199.66667824  .00051084  00000-0  32085-2 0  9997,2 52458  53.2163 279.8119 0001951  38.5965  17.3667 15.08796023 11480,6918.015,95.44,541.23,538.53,0.0
52458.0,STARLINK-3898,PAYLOAD,2022-07-18 22:00:00,15.08836285,0.0001835,53.2161,278.6883,41.0021,293.6295,-0.0013746,-0.00022096,0.0,0 STARLINK-3898,1 52458U 22049H   22199.91667824 -.00022096  00000-0 -13746-2 0  9991,2 52458  53.2161 278.6883 0001835  41.0021 293.6295 15.08836285  1307,6917.892,95.438,541.026,538.487,0.0
52458.0,STARLINK-3898,PAYLOAD,2022-07-19 06:00:00,15.08836928,0.0001753,53.2163,277.1915,45.5719,300.6371,0.00076456,0.000119,0.0,0 STARLINK-3898,1 52458U 22049H   22200.25001157  .00011900  00000-0  76456-3 0  9990,2 52458  53.2163 277.1915 0001753  45.5719 300.6371 15.08836928 11579,6917.89,95.438,540.967,538.5419999999998,0.0
52458.0,STARLINK-3898,PAYLOAD,2022-07-19 14:00:01,15.08824874,0.0001969,53.2161,275.6968,40.7151,317.0905,0.0018042,0.00028531,0.0,0 STARLINK-3898,1 52458U 22049H   22200.58334491  .00028531  00000-0  18042-2 0  9990,2 52458  53.2161 275.6968 0001969  40.7151 317.0905 15.08824874  1306,6917.927,95.439,541.154,538.429,0.0
52458.0,STARLINK-3898,PAYLOAD,2022-07-19 22:00:00,15.08844262,0.0001886,53.2164,274.202,41.449,327.9459,0.00050691,7.79e-05,0.0,0 STARLINK-3898,1 52458U 22049H   22200.91667824  .00007790  00000-0  50691-3 0  9997,2 52458  53.2164 274.2020 0001886  41.4490 327.9459 15.08844262  1302,6917.8669999999975,95.437,541.0369999999998,538.428,0.0
52458.0,STARLINK-3898,PAYLOAD,2022-07-20 14:00:01,15.08840531,0.0001966,53.2157,271.2074,39.5054,353.1503,-0.00044733,-7.401e-05,0.0,0 STARLINK-3898,1 52458U 22049H   22201.58334491 -.00007401  00000-0 -44733-3 0  9993,2 52458  53.2157 271.2074 0001966  39.5054 353.1503 15.08840531  1309,6917.879,95.438,541.104,538.384,0.0
52458.0,STARLINK-3898,PAYLOAD,2022-07-20 22:00:01,15.08834653,0.0001893,53.2155,269.7093,43.0496,1.2543,-0.00089205,-0.00014455,0.0,0 STARLINK-3898,1 52458U 22049H   22201.91668981 -.00014455  00000-0 -89205-3 0  9994,2 52458  53.2155 269.7093 0001893  43.0496   1.2543 15.08834653  1302,6917.897,95.438,541.071,538.452,0.0
52458.0,STARLINK-3898,PAYLOAD,2022-07-21 14:00:01,15.08787672,0.0002137,53.2156,266.7181,43.3911,24.0624,0.0025482,0.00040442,0.0,0 STARLINK-3898,1 52458U 22049H   22202.58335648  .00040442  00000-0  25482-2 0  9998,2 52458  53.2156 266.7181 0002137  43.3911  24.0624 15.08787672  1306,6918.04,95.441,541.384,538.427,0.0
52458.0,STARLINK-3898,PAYLOAD,2022-07-21 22:00:00,15.08814849,0.0002015,53.2157,265.2201,45.6119,33.3315,-0.00016302,-2.88e-05,0.0,0 STARLINK-3898,1 52458U 22049H   22202.91667824 -.00002880  00000-0 -16302-3 0  9997,2 52458  53.2157 265.2201 0002015  45.6119  33.3315 15.08814849  1301,6917.956999999999,95.439,541.216,538.428,0.0
52458.0,STARLINK-3898,PAYLOAD,2022-07-22 06:00:00,15.08834753,0.0002055,53.2157,263.7238,48.1791,42.3242,-0.00052136,-8.575e-05,0.0,0 STARLINK-3898,1 52458U 22049H   22203.25001157 -.00008575  00000-0 -52136-3 0  9998,2 52458  53.2157 263.7238 0002055  48.1791  42.3242 15.08834753 12028,6917.896,95.438,541.183,538.34,0.0
52458.0,STARLINK-3898,PAYLOAD,2022-07-22 22:00:00,15.08834085,0.0002092,53.216,260.731,45.9302,67.7439,0.00044774,6.844e-05,0.0,0 STARLINK-3898,1 52458U 22049H   22203.91667824  .00006844  00000-0  44774-3 0  9994,2 52458  53.2160 260.7310 0002092  45.9302  67.7439 15.08834085  1300,6917.898,95.438,541.211,538.316,0.0
52458.0,STARLINK-3898,PAYLOAD,2022-07-23 08:00:01,15.08859651,0.0002215999999999,53.2164,258.8615,46.6588,171.5053,-0.0011627,-0.00018756,0.0,0 STARLINK-3898,1 52458U 22049H   22204.33334491 -.00018756  00000-0 -11627-2 0  9999,2 52458  53.2164 258.8615 0002216  46.6588 171.5053 15.08859651 12193,6917.82,95.436,541.2180000000002,538.1519999999998,0.0
